GLOBALSTAR M068         
1 32266U 07048D   25123.90103801 -.00000066  00000+0  21148-3 0  9994
2 32266  51.9883  77.2524 0001427  40.7550 354.9544 12.62822407811960
GLOBALSTAR M079         
1 37188U 10054A   25123.66479507 -.00000075  00000+0  16134-3 0  9994
2 37188  52.0038 275.3182 0000878 133.1183 240.0523 12.62273742670834
GLOBALSTAR M074         
1 37189U 10054B   25123.88216775 -.00000080  00000+0  13475-3 0  9996
2 37189  52.0015 273.9873 0000578 113.5420  46.5688 12.62274679671465
GLOBALSTAR M076         
1 37190U 10054C   25123.82632689 -.00000066  00000+0  21157-3 0  9998
2 37190  52.0027 274.3220 0000577 134.8713  12.8305 12.62262306671175
GLOBALSTAR M077         
1 37191U 10054D   25123.73524920 -.00000139  00000+0 -19758-3 0  9993
2 37191  52.0072 231.4448 0000509 130.0121  22.7756 12.62267596671534
GLOBALSTAR M075         
1 37192U 10054E   25123.91775244 -.00000078  00000+0  14234-3 0  9996
2 37192  51.9956 316.3274 0000759  96.4094  46.3384 12.62264328670252
GLOBALSTAR M073         
1 37193U 10054F   25123.76356211 -.00000075  00000+0  16206-3 0  9997
2 37193  52.0055 230.5823 0000547 143.6945  16.8749 12.62271122672223
GLOBALSTAR M083         
1 37739U 11033A   25123.85832301 -.00000092  00000+0  67110-4 0  9990
2 37739  51.9841 179.0861 0000439 131.4899  40.3426 12.62263784641250
GLOBALSTAR M088         
1 37740U 11033B   25123.96164037 -.00000101  00000+0  17323-4 0  9990
2 37740  51.9728  84.2944 0000453  62.7876 339.8995 12.62265908636815
GLOBALSTAR M091         
1 37741U 11033C   25123.81488241 -.00000084  00000+0  10759-3 0  9996
2 37741  52.0016  48.2193 0000799  81.8866 312.7568 12.62267505637584
GLOBALSTAR M085         
1 37742U 11033D   25123.81093082 -.00000080  00000+0  13221-3 0  9995
2 37742  51.9891 359.3111 0000928  93.1579 343.7794 12.62268093638096
GLOBALSTAR M081         
1 37743U 11033E   25123.90254615 -.00000070  00000+0  18851-3 0  9990
2 37743  51.9985   1.7924 0000748  99.1859 273.7231 12.62263390638259
GLOBALSTAR M089         
1 37744U 11033F   25123.97293714 -.00000070  00000+0  18736-3 0  9993
2 37744  51.9940 315.8141 0000565  90.8247  63.0695 12.62269573639105
GLOBALSTAR M084         
1 38040U 11080A   25123.91090635 -.00000095  00000+0  50541-4 0  9994
2 38040  51.9993 183.2676 0000078 224.2793 306.8368 12.62265806617354
GLOBALSTAR M080         
1 38041U 11080B   25123.88248317 -.00000089  00000+0  81296-4 0  9997
2 38041  52.0045 184.9296 0000673  93.7300  78.3849 12.62262615617197
GLOBALSTAR M082         
1 38042U 11080C   25123.81840425 -.00000106  00000+0 -15069-4 0  9995
2 38042  52.0049 140.5802 0000574  89.2772  81.6196 12.62266030617890
GLOBALSTAR M092         
1 38043U 11080D   25123.79126939 -.00000079  00000+0  13889-3 0  9995
2 38043  52.0080 231.0365 0000505 121.3628  46.4650 12.62264028616346
GLOBALSTAR M090         
1 38044U 11080E   25123.76554733 -.00000105  00000+0 -92607-5 0  9998
2 38044  51.9858 134.6056 0000332  99.0527  71.6279 12.62270068618003
GLOBALSTAR M086         
1 38045U 11080F   25123.79203924 -.00000091  00000+0  72533-4 0  9993
2 38045  51.9870 135.0724 0000799 211.6352 319.9068 12.62270371617954
GLOBALSTAR M097         
1 39072U 13005A   25123.86005666 -.00000091  00000+0  70900-4 0  9990
2 39072  52.0063  49.3651 0000545  89.6898 270.4031 12.62271859565218
GLOBALSTAR M093         
1 39073U 13005B   25123.91266791 -.00000093  00000+0  59520-4 0  9992
2 39073  51.9832  42.5778 0000620  86.2178 273.8759 12.62264187565179
GLOBALSTAR M094         
1 39074U 13005C   25123.91275008 -.00000077  00000+0  15158-3 0  9994
2 39074  51.9968 316.9188 0000958 116.5544 243.5421 12.62270562566783
GLOBALSTAR M096         
1 39075U 13005D   25123.92601809 -.00000078  00000+0  14214-3 0  9991
2 39075  52.0100   5.3581 0000927  98.3513 261.7459 12.62270910565700
GLOBALSTAR M078         
1 39076U 13005E   25123.58257078 -.00000108  00000+0 -23316-4 0  9998
2 39076  51.9863  90.9693 0001294  76.0394 284.0616 12.62261614564283
GLOBALSTAR M095         
1 39077U 13005F   25123.92580736 -.00000097  00000+0  38067-4 0  9992
2 39077  51.9792  87.1431 0000818  91.4293 268.6667 12.62269482564187
GLOBALSTAR M087         
1 52888U 22064A   25123.71884992 -.00000081  00000+0  12442-3 0  9991
2 52888  51.9990 229.1805 0000729 128.5289 231.5643 12.62279282139420
